OBJECT_NAME,OBJECT_ID,EPOCH,MEAN_MOTION,ECCENTRICITY,INCLINATION,RA_OF_ASC_NODE,ARG_OF_PERICENTER,MEAN_ANOMALY,EPHEMERIS_TYPE,CLASSIFICATION_TYPE,NORAD_CAT_ID,ELEMENT_SET_NO,REV_AT_EPOCH,BSTAR,MEAN_MOTION_DOT,MEAN_MOTION_DDOT
KZ-11 R/B,2026-138H,2026-07-12T21:48:00.762624,15.43010363,.0377051,55.1520,167.7492,143.6026,219.1292,0,U,69628,999,389,.75497E-3,.78015E-2,.97501E-5
CENTISPACE-1 GROUP 05 OBJECT J,2026-138J,2026-07-12T23:32:48.502752,14.15842481,.0009506,55.1383,185.8680,340.3250,19.7356,0,U,69636,999,364,-.58941E-4,-.27E-5,0
VICTUS HAZE PUMA,2026-142A,2026-07-13T04:56:04.773120,15.20840027,.0025031,97.4472,91.5322,273.2962,86.5410,0,U,69646,999,362,.10059E-3,.2166E-4,0
HOKUSHIN-1,1998-067YH,2026-07-12T07:53:44.048256,15.50906444,.00061407,51.6303,175.4569,319.8658,40.1877,0,U,69648,999,355,.24651945E-3,.14101E-3,0
STARLINK-37656,2026-143A,2026-07-13T02:02:16.420128,15.49213961,.0001077,97.2854,237.9472,101.4008,258.7365,0,U,69649,999,455,.70684E-3,.38574E-3,0
STARLINK-37646,2026-143B,2026-07-13T04:00:01.998720,15.49212293,.0001846,97.2847,238.2068,77.5972,69.0495,0,U,69650,999,463,-.17866E-4,-.1063E-4,0
STARLINK-37749,2026-143C,2026-07-13T04:00:01.998720,15.49231609,.0000711,97.2846,238.1906,133.6612,334.6849,0,U,69651,999,463,.26047E-3,.14122E-3,0
STARLINK-37819,2026-143D,2026-07-13T04:00:01.998720,15.49191536,.0001231,97.2842,238.1633,77.4133,326.5311,0,U,69652,999,463,-.25255E-4,-.1464E-4,0
STARLINK-37729,2026-143E,2026-07-13T02:31:04.165248,15.83313120,.0001732,97.2835,238.3815,230.7304,129.3812,0,U,69653,999,458,.14187E-2,.316076E-2,0
STARLINK-37838,2026-143F,2026-07-13T04:00:01.998720,15.49195344,.000166,97.2844,238.2326,50.7981,158.1528,0,U,69654,999,463,-.21693E-4,-.127E-4,0
STARLINK-37884,2026-143G,2026-07-13T02:27:43.972128,15.49226026,.0001158,97.2860,238.0768,79.8230,280.3151,0,U,69655,999,456,.47518E-3,.25871E-3,0
STARLINK-37876,2026-143H,2026-07-13T04:00:01.998720,15.49193890,.0001364,97.2843,238.2322,79.3875,127.1552,0,U,69656,999,453,-.12274E-4,-.758E-5,0
STARLINK-37784,2026-143J,2026-07-13T04:00:01.998720,15.49191605,.0001306,97.2841,238.1604,82.3155,316.6807,0,U,69657,999,453,-.12184E-4,-.753E-5,0
STARLINK-37851,2026-143K,2026-07-13T04:00:01.998720,15.49194958,.0000882,97.2844,238.2265,72.2933,122.2554,0,U,69658,999,452,-.53914E-4,-.3022E-4,0
STARLINK-37229,2026-143L,2026-07-13T04:00:01.998720,15.49192065,.0001164,97.2845,238.1799,92.6246,353.2578,0,U,69659,999,457,.2699E-4,.1378E-4,0
STARLINK-37556,2026-143M,2026-07-13T04:00:01.998720,15.49194064,.0001398,97.2847,238.2075,85.6328,64.1887,0,U,69660,999,457,-.18472E-4,-.1095E-4,0
STARLINK-37867,2026-143N,2026-07-13T04:00:01.998720,15.49203282,.0001989,97.2845,238.2275,78.2321,114.8146,0,U,69661,999,453,.99964E-4,.5353E-4,0
STARLINK-37852,2026-143P,2026-07-13T04:00:01.998720,15.49191923,.0001245,97.2843,238.1517,87.3590,288.7178,0,U,69662,999,453,.10463E-3,.5605E-4,0
STARLINK-37554,2026-143Q,2026-07-13T04:00:01.998720,15.49186813,.0000941,97.2846,238.2035,77.0336,63.3092,0,U,69663,999,457,.85243E-4,.4548E-4,0
STARLINK-37830,2026-143R,2026-07-13T04:00:01.998720,15.49186440,.0001541,97.2842,238.1677,84.3583,331.7334,0,U,69664,999,452,.83296E-4,.4442E-4,0
STARLINK-37837,2026-143S,2026-07-13T04:00:01.998720,15.46890928,.0001988,97.2836,238.2272,61.0264,135.5869,0,U,69665,999,453,-.69561E-1,-.3079079E-1,0
STARLINK-37943,2026-143T,2026-07-13T04:00:01.998720,15.49184971,.0001547,97.2844,238.1704,83.9655,335.0903,0,U,69666,999,453,.24436E-3,.1322E-3,0
STARLINK-37941,2026-143U,2026-07-13T04:00:01.998720,15.49191323,.000116,97.2848,238.1981,70.2034,59.2245,0,U,69667,999,453,-.29211E-5,-.249E-5,0
STARLINK-37930,2026-143V,2026-07-13T04:00:01.998720,15.49191433,.000099,97.2848,238.1994,73.2010,59.2223,0,U,69668,999,452,.27339E-4,.1397E-4,0
STARLINK-37945,2026-143W,2026-07-13T04:00:01.998720,15.49181240,.0001314,97.2841,238.2318,86.8485,117.4731,0,U,69669,999,453,.21564E-3,.11652E-3,0
STARLINK-37948,2026-143X,2026-07-13T01:10:13.785024,15.49226385,.0001466,97.2875,238.0004,77.9234,282.2182,0,U,69670,999,448,.85147E-3,.46554E-3,0
STARLINK-37949,2026-143Y,2026-07-13T04:00:01.998720,15.49189610,.0000664,97.2845,238.1754,69.4570,3.8575,0,U,69671,999,453,.12396E-3,.6657E-4,0
STARLINK-37946,2026-143Z,2026-07-13T04:00:01.998720,15.49188052,.0001364,97.2848,238.2094,74.2860,76.6842,0,U,69672,999,453,.10133E-3,.5424E-4,0
TJS-26A,2026-144A,2026-07-12T07:10:37.543296,1.00274367,.0004208,6.9538,323.2302,347.4913,194.6526,0,U,69674,999,19,0,-.341E-5,0
CZ-7A R/B,2026-144B,2026-07-12T18:08:32.483328,2.56147611,.7121003,19.4524,316.1834,194.6074,122.3453,0,U,69675,999,50,.72994E-3,.647061E-2,-.1227E-4
