KZ-11 R/B               
1 69628U 26138H   26193.90834216  .00780150  97501-5  75497-3 0  9998
2 69628  55.1520 167.7492 0377051 143.6026 219.1292 15.43010363  3894
CENTISPACE-1 GROUP 05 O*
1 69636U 26138J   26193.98111693 -.00000270  00000+0 -58941-4 0  9990
2 69636  55.1383 185.8680 0009506 340.3250  19.7356 14.15842481  3642
VICTUS HAZE PUMA        
1 69646U 26142A   26194.20561080  .00002166  00000+0  10059-3 0  9992
2 69646  97.4472  91.5322 0025031 273.2962  86.5410 15.20840027  3624
HOKUSHIN-1              
1 69648U 98067YH  26193.32898204  .00014101  00000+0  24652-3 0  9998
2 69648  51.6303 175.4569 0006140 319.8658  40.1877 15.50906444  3559
STARLINK-37656          
1 69649U 26143A   26194.08491227  .00038574  00000+0  70684-3 0  9999
2 69649  97.2854 237.9472 0001077 101.4008 258.7365 15.49213961  4555
STARLINK-37646          
1 69650U 26143B   26194.16668980 -.00001063  00000+0 -17866-4 0  9991
2 69650  97.2847 238.2068 0001846  77.5972  69.0495 15.49212293  4634
STARLINK-37749          
1 69651U 26143C   26194.16668980  .00014122  00000+0  26047-3 0  9990
2 69651  97.2846 238.1906 0000711 133.6612 334.6849 15.49231609  4635
STARLINK-37819          
1 69652U 26143D   26194.16668980 -.00001464  00000+0 -25255-4 0  9999
2 69652  97.2842 238.1633 0001231  77.4133 326.5311 15.49191536  4638
STARLINK-37729          
1 69653U 26143E   26194.10490932  .00316076  00000+0  14187-2 0  9990
2 69653  97.2835 238.3815 0001732 230.7304 129.3812 15.83313120  4587
STARLINK-37838          
1 69654U 26143F   26194.16668980 -.00001270  00000+0 -21693-4 0  9998
2 69654  97.2844 238.2326 0001660  50.7981 158.1528 15.49195344  4633
STARLINK-37884          
1 69655U 26143G   26194.10259227  .00025871  00000+0  47518-3 0  9997
2 69655  97.2860 238.0768 0001158  79.8230 280.3151 15.49226026  4565
STARLINK-37876          
1 69656U 26143H   26194.16668980 -.00000758  00000+0 -12274-4 0  9995
2 69656  97.2843 238.2322 0001364  79.3875 127.1552 15.49193890  4536
STARLINK-37784          
1 69657U 26143J   26194.16668980 -.00000753  00000+0 -12184-4 0  9991
2 69657  97.2841 238.1604 0001306  82.3155 316.6807 15.49191605  4538
STARLINK-37851          
1 69658U 26143K   26194.16668980 -.00003022  00000+0 -53914-4 0  9990
2 69658  97.2844 238.2265 0000882  72.2933 122.2554 15.49194958  4529
STARLINK-37229          
1 69659U 26143L   26194.16668980  .00001378  00000+0  26990-4 0  9995
2 69659  97.2845 238.1799 0001164  92.6246 353.2578 15.49192065  4573
STARLINK-37556          
1 69660U 26143M   26194.16668980 -.00001095  00000+0 -18472-4 0  9991
2 69660  97.2847 238.2075 0001398  85.6328  64.1887 15.49194064  4579
STARLINK-37867          
1 69661U 26143N   26194.16668980  .00005353  00000+0  99964-4 0  9996
2 69661  97.2845 238.2275 0001989  78.2321 114.8146 15.49203282  4537
STARLINK-37852          
1 69662U 26143P   26194.16668980  .00005605  00000+0  10463-3 0  9993
2 69662  97.2843 238.1517 0001245  87.3590 288.7178 15.49191923  4532
STARLINK-37554          
1 69663U 26143Q   26194.16668980  .00004548  00000+0  85243-4 0  9998
2 69663  97.2846 238.2035 0000941  77.0336  63.3092 15.49186813  4576
STARLINK-37830          
1 69664U 26143R   26194.16668980  .00004442  00000+0  83296-4 0  9998
2 69664  97.2842 238.1677 0001541  84.3583 331.7334 15.49186440  4528
STARLINK-37837          
1 69665U 26143S   26194.16668980 -.03079079  00000+0 -69561-1 0  9998
2 69665  97.2836 238.2272 0001988  61.0264 135.5869 15.46890928  4531
STARLINK-37943          
1 69666U 26143T   26194.16668980  .00013220  00000+0  24436-3 0  9994
2 69666  97.2844 238.1704 0001547  83.9655 335.0903 15.49184971  4531
STARLINK-37941          
1 69667U 26143U   26194.16668980 -.00000249  00000+0 -29211-5 0  9992
2 69667  97.2848 238.1981 0001160  70.2034  59.2245 15.49191323  4537
STARLINK-37930          
1 69668U 26143V   26194.16668980  .00001397  00000+0  27339-4 0  9994
2 69668  97.2848 238.1994 0000990  73.2010  59.2223 15.49191433  4526
STARLINK-37945          
1 69669U 26143W   26194.16668980  .00011652  00000+0  21564-3 0  9993
2 69669  97.2841 238.2318 0001314  86.8485 117.4731 15.49181240  4535
STARLINK-37948          
1 69670U 26143X   26194.04877066  .00046554  00000+0  85147-3 0  9995
2 69670  97.2875 238.0004 0001466  77.9234 282.2182 15.49226385  4480
STARLINK-37949          
1 69671U 26143Y   26194.16668980  .00006657  00000+0  12396-3 0  9998
2 69671  97.2845 238.1754 0000664  69.4570   3.8575 15.49189610  4537
STARLINK-37946          
1 69672U 26143Z   26194.16668980  .00005424  00000+0  10133-3 0  9997
2 69672  97.2848 238.2094 0001364  74.2860  76.6842 15.49188052  4537
TJS-26A                 
1 69674U 26144A   26193.29904564 -.00000341  00000+0  00000+0 0  9996
2 69674   6.9538 323.2302 0004208 347.4913 194.6526  1.00274367   198
CZ-7A R/B               
1 69675U 26144B   26193.75593152  .00647061 -12270-4  72994-3 0  9993
2 69675  19.4524 316.1834 7121003 194.6074 122.3453  2.56147611   509
